STARLINK-3137
1 29449C 21104AT  21325.18925061 -.00816642  00000-0 -26808-2 0  3251
2 29449  53.2175  95.6597 0033555  63.7752 162.1908 15.89621048    19
